[
  {
    "destinationId": 1,
    "address": "4 Chome-2-8 Shibakoen, Minato City, Tokyo 105-0011, Japan",
    "phone_number": "+81 3-3433-5111",
    "website": "https://www.tokyotower.co.jp/",
    "opening_hours": "09:00–23:00",
    "rating": 4.5,
    "total_reviews": 12400
  },
  {
    "destinationId": 2,
    "address": "Champ de Mars, 5 Avenue Anatole France, 75007 Paris, France",
    "phone_number": "+33 892 70 12 39",
    "website": "https://www.toureiffel.paris/",
    "opening_hours": "09:30–23:45",
    "rating": 4.7,
    "total_reviews": 32000
  },
  {
    "destinationId": 3,
    "address": "Pecatu, South Kuta, Badung Regency, Bali, Indonesia",
    "phone_number": "+62 361 123456",
    "website": "https://uluwatutemple.com/",
    "opening_hours": "09:00–18:00",
    "rating": 4.6,
    "total_reviews": 8700
  },
  {
    "destinationId": 4,
    "address": "New York, NY 10004, United States",
    "phone_number": "+1 212-363-3200",
    "website": "https://www.nps.gov/stli/index.htm",
    "opening_hours": "08:30–16:00",
    "rating": 4.7,
    "total_reviews": 31000
  },
  {
    "destinationId": 5,
    "address": "Piazza del Colosseo, 1, 00184 Roma RM, Italy",
    "phone_number": "+39 06 3996 7700",
    "website": "https://parcocolosseo.it/",
    "opening_hours": "09:00–19:00",
    "rating": 4.6,
    "total_reviews": 25000
  },
  {
    "destinationId": 6,
    "address": "Bennelong Point, Sydney NSW 2000, Australia",
    "phone_number": "+61 2 9250 7111",
    "website": "https://www.sydneyoperahouse.com/",
    "opening_hours": "09:00–17:00",
    "rating": 4.7,
    "total_reviews": 29000
  }
]
